C/2019 F2 (ATLAS),e,19.2944,175.4107,11.6421,16.59634,0.0145776,0.86468702,22.4570,11/26.0/2023,2000,g 12.0,4.0
# From MPEC 2021-P47
A/2019 G2,e,159.2184,208.1677,82.6227,415.8915,0.0001162,0.99447923,0.0000,12/07.9410/2019,2000,g 16.5,2.0
# From MPEC 2022-VC5
A/2019 G3,e,156.8040,49.9124,161.8717,17.18402,0.0138362,0.83451314,25.1459,11/26.0/2023,2000,g 17.1,2.0
# From MPC114607
P/2019 GG21 (PANSTARRS),e,6.0867,340.5607,208.5797,7.467794,0.0482965,0.47178539,80.2290,11/26.0/2023,2000,g 12.0,4.0
# From MPEC 2022-M21
C/2019 H1 (NEOWISE),e,104.4123,269.2900,19.3169,242.8725,0.0002604,0.99240948,0.0000,04/27.8591/2019,2000,g 15.5,4.0
# From MPEC 2023-A50
C/2019 J1 (Lemmon),e,24.5340,98.1890,167.7028,67.81215,0.0017650,0.96334372,2.9896,11/26.0/2023,2000,g 12.0,4.0
# From MPEC 2021-R75
C/2019 J2 (Palomar),e,5.2604,25.5353,98.6809,161.0388,0.0004823,0.98930937,0.0000,07/20.3524/2019,2000,g 13.0,4.0
# From MPC117071
C/2019 J3 (ATLAS),h,08/02.4913/2019,131.3279,270.6274,16.5844,1.000507,2.368289,2000,13.5,4.0
# From MPEC 2022-M21
C/2019 JU6 (ATLAS),h,06/02.3017/2019,148.3305,21.7637,94.9592,1.000086,2.041172,2000,14.5,4.0
# From MPEC 2022-O08
C/2019 K1 (ATLAS),e,87.0309,73.3213,265.7353,6420,0.0000019,0.99968610,0.0000,02/12.3670/2020,2000,g 10.0,4.0
# From MPC119997
C/2019 K4 (Ye),e,105.2969,180.1728,139.9311,1454,0.0000178,0.99843773,0.0000,06/15.4108/2019,2000,g 12.5,4.0
# From MPEC 2021-P47
C/2019 K5 (Young),e,15.3143,177.1869,175.1355,169.5586,0.0004464,0.98793421,0.0000,06/22.7696/2019,2000,g 13.0,4.0
# From MPEC 2021-P47
C/2019 K6 (PANSTARRS),e,132.3795,43.0025,187.5458,1322,0.0000205,0.99703421,0.0000,05/19.7420/2020,2000,g 11.5,4.0
# From MPEC 2023-R20
C/2019 K7 (Smith),h,06/17.6625/2020,103.5191,307.9866,27.4096,1.000998,4.478262,2000,6.0,4.0
# From MPEC 2021-R75
C/2019 K8 (ATLAS),e,93.1145,291.0247,85.3616,2281,0.0000090,0.99859944,0.0000,07/21.4766/2019,2000,g 11.5,4.0
# From MPEC 2023-A50
C/2019 L1 (PANSTARRS),e,9.9762,254.4291,50.0618,9.836653,0.0319472,0.70500015,50.1272,11/26.0/2023,2000,g 13.5,4.0
# From MPC115886
C/2019 L2 (NEOWISE),e,152.2050,12.5522,18.8604,25.08531,0.0078447,0.93517463,13.3254,11/26.0/2023,2000,g 16.0,4.0
# From MPEC 2023-HD1
P/2019 LD2 (ATLAS),e,11.6116,179.5161,118.8986,5.207069,0.0829495,0.12676224,113.6847,11/26.0/2023,2000,g 12.0,4.0
# From MPEC 2023-R20
C/2019 L3 (ATLAS),h,01/09.7568/2022,48.3457,290.7601,171.6429,1.002366,3.554680,2000,4.5,4.0
# From MPEC 2020-K19
P/2019 LM4 (Palomar),e,36.4157,72.8379,68.2816,5.705365,0.0723234,0.58515044,117.3068,11/26.0/2023,2000,g  9.5,4.0
# From MPC118095
C/2019 LB7 (Kleyna),e,164.2902,3.9030,336.6329,34.78708,0.0048037,0.92830126,8.1934,11/26.0/2023,2000,g 17.0,4.0
# From MPEC 2022-O08
P/2019 M2 (ATLAS),e,12.2693,307.5899,332.5584,3.029470,0.1869193,0.64729224,302.5829,11/26.0/2023,2000,g 21.2,4.0
# From MPC118095
C/2019 M3 (ATLAS),e,99.5459,154.9554,87.9108,5183,0.0000026,0.99953236,0.0000,12/31.5475/2018,2000,g 12.2,4.0
# From MPEC 2023-JA2
C/2019 M4 (TESS),h,09/11.9855/2019,65.6786,52.6492,260.3734,1.002996,9.189392,2000,5.0,4.0
# From MPEC 2023-C45
C/2019 N1 (ATLAS),e,82.4389,13.5667,193.3920,1287,0.0000213,0.99867563,0.0000,12/01.0522/2020,2000,g  7.5,4.0
# From MPEC 2023-CD8
A/2019 N2,e,89.3629,276.1623,347.1758,1515,0.0000167,0.99871469,0.0000,08/22.6969/2019,2000,g 12.5,2.0
# From MPEC 2022-A21
C/2019 NJ3 (Lemmon),h,10/22.7675/2020,99.4019,142.4793,246.8962,1.001964,4.363557,2000,9.0,4.0
# From MPEC 2023-SQ0
A/2019 O2,e,93.3123,48.2577,129.6199,58.19082,0.0022204,0.83360561,0.5177,11/26.0/2023,2000,g  9.5,2.0
# From MPEC 2023-VM5
C/2019 O3 (Palomar),h,03/09.6567/2021,89.8144,300.4389,60.1337,1.004368,8.821366,2000,3.5,4.0
# From MPEC 2021-P47
A/2019 O4,e,15.0925,354.9278,61.9200,33.30639,0.0051276,0.89039638,7.0975,11/26.0/2023,2000,g 15.5,2.0
# From MPEC 2023-A50
C/2019 Q1 (Lemmon),h,07/21.1217/2020,155.7316,42.4561,56.2267,1.001329,5.004562,2000,8.5,4.0
# From MPC117072
A/2019 Q2,e,159.0217,188.0270,176.4334,58.21103,0.0022192,0.97828952,0.0000,07/22.3370/2019,2000,g 18.0,2.0
# From MPC117072
P/2019 S2 (PANSTARRS),e,10.4653,93.1879,217.1057,4.744353,0.0953759,0.20527008,165.8741,11/26.0/2023,2000,g 13.5,4.0
# From MPEC 2022-CN4
P/2019 S3 (PANSTARRS),e,8.6944,150.1717,213.0532,3.415233,0.1561614,0.47109246,242.2671,11/26.0/2023,2000,g 18.3,4.0
# From MPEC 2021-S45
C/2019 S4 (Lemmon),e,92.1002,63.1577,71.3707,237.6756,0.0002690,0.98551733,0.0000,04/08.2806/2020,2000,g 11.0,4.0
# From MPEC 2023-N01
A/2019 T1,e,120.8691,6.9447,91.0612,38.82791,0.0040737,0.88976478,4.2572,11/26.0/2023,2000,g 13.0,2.0
# From MPEC 2023-R20
C/2019 T2 (Lemmon),e,111.4538,155.6540,239.4296,5048,0.0000027,0.99947592,0.0000,04/22.6328/2021,2000,g  9.0,4.0
# From MPEC 2023-UR6
C/2019 T3 (ATLAS),e,121.8391,139.5324,112.4568,3415,0.0000049,0.99825682,0.0000,03/04.3011/2021,2000,g  6.8,4.0
# From MPEC 2023-W26
C/2019 T4 (ATLAS),e,53.6311,199.9376,351.1452,912.7179,0.0000357,0.99535340,0.0000,06/08.7994/2022,2000,g  5.0,4.0
# From MPEC 2021-P47
P/2019 T5 (ATLAS),e,33.4890,247.6155,189.5755,7.999578,0.0435616,0.80973927,68.6817,11/26.0/2023,2000,g 15.0,4.0
# From MPEC 2021-P47
P/2019 T6 (PANSTARRS),e,18.6977,71.2527,328.9909,5.439068,0.0776993,0.62308035,114.8473,11/26.0/2023,2000,g 15.5,4.0
# From MPC118096
P/2019 U4 (PANSTARRS),e,11.6990,200.0207,181.0323,3.519875,0.1492496,0.47602238,228.0365,11/26.0/2023,2000,g 19.0,4.0
# From MPEC 2023-W26
C/2019 U5 (PANSTARRS),h,03/29.7565/2023,113.5169,2.6353,181.4787,1.001170,3.624010,2000,4.5,4.0
# From MPEC 2022-H04
C/2019 U6 (Lemmon),e,60.9675,235.7853,329.5274,326.1162,0.0001674,0.99720326,0.0000,06/18.3134/2020,2000,g 10.0,4.0
# From MPEC 2022-N37
C/2019 V1 (Borisov),e,61.9246,83.1537,51.1684,1683,0.0000143,0.99816180,0.0000,07/16.6389/2020,2000,g 11.0,4.0
# From MPEC 2022-L66
P/2019 V2 (Groeller),e,11.8079,189.1808,335.6802,7.496816,0.0480163,0.33121092,54.5043,11/26.0/2023,2000,g 10.0,4.0
# From MPEC 2023-A50
P/2019 W1 (PANSTARRS),e,23.4757,35.3767,18.7652,4.548858,0.1015899,0.26726806,168.7446,11/26.0/2023,2000,g 12.9,4.0
# From MPEC 2021-P47
P/2019 X1 (Pruyne),e,10.2505,43.6793,36.8228,6.175092,0.0642301,0.30387303,101.9462,11/26.0/2023,2000,g 10.4,4.0
# From MPEC 2020-C98
P/2019 X2 (Pan-STARRS),e,15.8950,250.8390,213.4482,3.636294,0.1421398,0.49996036,205.7020,11/26.0/2023,2000,g 18.0,4.0
# From MPC119999
C/2019 Y1 (ATLAS),e,73.3832,31.5438,57.9143,86.97254,0.0012152,0.99047504,0.0000,03/16.2786/2020,2000,g 13.7,4.0
# From MPEC 2020-C98
P/2019 Y3 (Catalina),e,24.6037,139.3075,2.5841,3.013969,0.1883632,0.69114369,272.7477,11/26.0/2023,2000,g 18.5,4.0
# From MPEC 2022-YN2
C/2019 Y4 (ATLAS),e,45.1425,120.6971,177.4490,350.5016,0.0001502,0.99926992,0.0000,05/30.7045/2020,2000,g 11.8,6.0
# From MPEC 2020-L06
C/2019 Y4-A (ATLAS),h,05/30.7351/2020,45.5835,121.0599,177.2825,1.001416,0.254048,2000,11.6,6.0
# From MPEC 2023-J29
C/2019 Y4-B (ATLAS),h,05/30.7107/2020,45.2727,120.8036,177.3930,1.000014,0.255361,2000,12.1,6.0
# From MPEC 2020-L06
C/2019 Y4-C (ATLAS),h,05/30.6881/2020,45.3661,120.7867,177.3158,1.002142,0.255120,2000,12.7,6.0
# From MPEC 2020-L06
C/2019 Y4-D (ATLAS),e,45.4127,121.1579,177.4544,68.31350,0.0017456,0.99627547,0.0000,05/30.8120/2020,2000,g 12.5,6.0
# From MPEC 2023-A50
C/2019 Y5 (PANSTARRS),e,82.7618,51.7508,303.5874,732.8490,0.0000497,0.99328226,0.0000,08/17.6733/2019,2000,g 11.0,4.0
# From MPEC 2023-A50
A/2020 A1,e,149.0349,119.1682,302.4623,25.57800,0.0076191,0.93484540,11.0865,11/26.0/2023,2000,g 18.0,2.0
# From MPEC 2022-YN2
C/2020 A2 (Iwamoto),e,120.5910,286.2669,68.0578,1277,0.0000216,0.99923719,0.0000,01/08.3822/2020,2000,g 13.5,4.0
# From MPEC 2023-A50
C/2020 A3 (ATLAS),h,06/28.7770/2019,146.6553,120.8050,268.3334,1.000488,5.757437,2000,8.0,4.0
# From MPEC 2022-P91
P/2020 A4 (PANSTARRS-Lemmon),e,24.9913,312.3629,144.7754,8.195098,0.0420120,0.65422210,61.4910,11/26.0/2023,2000,g 15.0,4.0
# From MPEC 2020-N08
A/2020 B1,e,18.5210,309.9314,154.7286,51.53255,0.0026643,0.96624873,3.8108,11/26.0/2023,2000,g 21.0,2.0
# From MPEC 2020-HN5
C/2020 B2 (Lemmon),e,55.7530,354.2856,143.5984,67.66656,0.0017707,0.95921574,2.4778,11/26.0/2023,2000,g 10.0,4.0
# From MPEC 2022-N37
C/2020 B3 (Rankin),e,20.7089,185.8358,324.8864,936.2202,0.0000344,0.99643950,0.0000,10/19.6184/2019,2000,g 13.0,4.0
# From MPEC 2023-KD6
P/2020 B4 (Sheppard),e,11.6083,185.9770,342.0080,7.967071,0.0438284,0.19199148,32.3276,11/26.0/2023,2000,g 10.5,4.0
# From MPEC 2023-W26
C/2020 F2 (ATLAS),h,07/14.3152/2022,163.5892,250.2986,48.3070,1.005045,8.815815,2000,4.5,4.0
# From MPEC 2021-O56
C/2020 F3 (NEOWISE),e,29.1026,61.0834,37.3041,362.5387,0.0001428,0.99918942,0.0000,07/04.0413/2020,2000,g  7.5,5.2
# From MPEC 2023-W26
C/2020 F5 (MASTER),e,52.2062,350.5004,310.6811,172.6029,0.0004346,0.97493756,0.0000,03/17.2244/2021,2000,g  6.5,3.2
# From MPEC 2020-L06
C/2020 F6 (PANSTARRS),e,174.5831,207.9015,344.4986,387.3054,0.0001293,0.99095620,0.0000,04/11.5754/2020,2000,g 14.5,2.8
# From MPEC 2023-J95
C/2020 F7 (Lemmon),e,93.9547,321.8591,227.9473,561.1834,0.0000741,0.99049807,0.0000,11/13.6382/2021,2000,g  7.0,4.0
# From MPEC 2023-J29
C/2020 F8 (SWAN),h,05/27.0503/2020,110.5971,259.8499,68.0755,1.000163,0.429770,2000,10.0,4.0
# From MPEC 2020-L06
P/2020 G1 (Pimentel),e,18.5098,240.1075,207.6160,3.607949,0.1438181,0.86057515,193.8741,11/26.0/2023,2000,g 17.0,4.0
# From MPEC 2022-YB4
C/2020 H2 (Pruyne),e,124.8644,277.6691,26.6440,187.1621,0.0003849,0.99556384,0.0000,04/27.7886/2020,2000,g 14.0,3.2
# From MPEC 2020-HM1
C/2020 H3 (Wierzchos),p,06/05.7162/2020,62.5292,30.4456,2.300288,270.6227,2000,13.5,4.0
# From MPEC 2020-L06
C/2020 H4 (Leonard),e,84.4992,307.6220,117.5130,47.82370,0.0029802,0.98066838,0.0000,08/29.6243/2020,2000,g 15.0,3.2
# From MPEC 2023-VM5
C/2020 H5 (Robinson),e,70.2561,210.6276,326.3121,4225,0.0000036,0.99778931,0.0000,12/10.3881/2020,2000,g  5.0,4.0
# From MPEC 2023-SQ0
C/2020 H6 (ATLAS),e,79.9779,213.7207,20.2744,4426,0.0000033,0.99893798,0.0000,09/30.4149/2021,2000,g  8.0,3.2
# From MPEC 2020-KB7
